OBJECT_NAME,OBJECT_ID,EPOCH,MEAN_MOTION,ECCENTRICITY,INCLINATION,RA_OF_ASC_NODE,ARG_OF_PERICENTER,MEAN_ANOMALY,EPHEMERIS_TYPE,CLASSIFICATION_TYPE,NORAD_CAT_ID,ELEMENT_SET_NO,REV_AT_EPOCH,BSTAR,MEAN_MOTION_DOT,MEAN_MOTION_DDOT
STARLINK-31636,2024-090T,2026-01-26T09:28:04.848384,15.27577833,.00016953,43.0019,62.1848,254.0202,106.0463,0,U,59747,999,9697,.35571541E-4,.717E-5,0
STARLINK-31640,2024-090U,2026-01-26T09:52:08.870592,15.27573570,.00002796,43.0023,62.3028,154.0708,206.0158,0,U,59748,999,9697,.38773836E-4,.805E-5,0
STARLINK-31677,2024-090V,2026-01-26T11:50:21.092352,15.27569953,.00005336,43.0031,62.0610,259.9308,100.1483,0,U,59749,999,9697,.72578157E-4,.1735E-4,0
STARLINK-31783,2024-090W,2026-01-26T12:01:26.597856,15.27583290,.00011903,43.0028,62.1203,288.5492,71.5230,0,U,59750,999,9697,.42629085E-4,.911E-5,0
STARLINK-31808,2024-090X,2026-01-26T09:02:11.132736,15.27572275,.00011379,42.9999,62.0453,271.4959,88.5762,0,U,59751,999,9696,.21460994E-4,.328E-5,0
STARLINK-31822,2024-090Y,2026-01-25T11:35:26.248416,15.27595156,.00008559,43.0041,67.3812,255.3807,104.6950,0,U,59752,999,9682,-.10859684E-3,-.325E-4,0
STARLINK-11118 [DTC],2024-091B,2026-01-26T07:35:47.690016,15.69690862,.0001338,53.1588,55.4803,102.2243,257.8925,0,U,59754,999,9885,.14942E-5,-.408E-5,0
STARLINK-11132 [DTC],2024-091C,2026-01-26T08:53:19.830624,15.69714645,.00012993,53.1594,55.1005,87.2208,272.8958,0,U,59755,999,9886,-.3245755E-5,-.982E-5,0
STARLINK-11131 [DTC],2024-091D,2026-01-26T08:46:17.545440,15.69678480,.00012943,53.1593,55.0726,75.3285,284.7877,0,U,59756,999,9886,.11382429E-4,.789E-5,0
STARLINK-11114 [DTC],2024-091E,2026-01-26T08:39:12.555936,15.69710249,.00011506,53.1594,55.0573,78.9004,281.2144,0,U,59757,999,9886,.8754419E-5,.472E-5,0
STARLINK-11105 [DTC],2024-091F,2026-01-26T08:32:10.148928,15.69675223,.00013589,53.1595,55.0226,94.6161,265.5012,0,U,59758,999,9886,.17219613E-4,.1495E-4,0
STARLINK-11097 [DTC],2024-091G,2026-01-26T08:25:05.927520,15.69685644,.00011693,53.1589,54.9678,81.2416,278.8734,0,U,59759,999,9886,-.15114605E-4,-.2417E-4,0
STARLINK-11098 [DTC],2024-091H,2026-01-26T06:46:18.458976,15.69724242,.0001507,53.1588,55.2523,120.4922,239.6245,0,U,59760,999,9885,.38747E-4,.411E-4,0
STARLINK-11117 [DTC],2024-091J,2026-01-26T08:10:57.889056,15.69684720,.00017671,53.1581,54.9072,60.0093,300.1100,0,U,59761,999,9886,-.28237345E-4,-.4005E-4,0
STARLINK-11110 [DTC],2024-091K,2026-01-26T08:03:54.651744,15.69683295,.00013468,53.1589,54.8713,90.0282,270.0891,0,U,59762,999,9886,-.1861424E-4,-.2841E-4,0
STARLINK-11104 [DTC],2024-091L,2026-01-26T07:56:50.085600,15.69680440,.00009932,53.1588,54.8397,67.0411,293.0712,0,U,59763,999,9886,.39567886E-4,.4202E-4,0
STARLINK-11111 [DTC],2024-091M,2026-01-26T07:42:41.304096,15.69712877,.0000886,53.1571,54.7735,101.5092,258.6026,0,U,59764,999,9886,.25337E-4,.2482E-4,0
STARLINK-11106 [DTC],2024-091N,2026-01-26T07:49:46.682400,15.69686710,.0001027,53.1594,54.8072,93.7892,266.3243,0,U,59765,999,9886,-.10484467E-4,-.1857E-4,0
STARLINK-31739,2024-091P,2026-01-26T13:08:44.778336,15.30216955,.00010625,53.1544,219.7004,68.4862,291.6252,0,U,59766,999,9659,-.12572599E-3,-.4083E-4,0
STARLINK-31828,2024-091Q,2026-01-26T05:40:41.223936,15.30200352,.0000449,53.1494,224.1439,301.0364,59.0593,0,U,59767,999,9650,-.33458E-5,-.458E-5,0
STARLINK-31826,2024-091R,2026-01-26T13:35:31.128864,15.30198862,.00013593,53.1581,222.6536,108.6612,251.4536,0,U,59768,999,9655,.66346697E-4,.1606E-4,0
STARLINK-31830,2024-091S,2026-01-26T13:40:04.442304,15.30193519,.00019557,53.1553,222.6686,78.8184,281.3037,0,U,59769,999,9655,.2394273E-4,.349E-5,0
STARLINK-31829,2024-091T,2026-01-26T13:26:23.796960,15.30194137,.00010791,53.1549,222.6120,87.3494,272.7630,0,U,59770,999,9655,.78492554E-4,.1966E-4,0
STARLINK-31786,2024-091U,2026-01-25T22:05:36.932640,15.30197119,.00012188,53.1567,225.7299,103.9287,256.1849,0,U,59771,999,9645,.38657657E-3,.11106E-3,0
STARLINK-31835,2024-091V,2026-01-25T23:15:21.485952,15.30196797,.000125,53.1583,225.3169,85.8217,274.2926,0,U,59772,999,9646,.18093844E-3,.5003E-4,0
COSMOS 2576,2024-092A,2026-01-25T17:01:56.639712,15.26395914,.0004486,97.4240,143.1045,331.7784,28.3211,0,U,59773,999,9469,.74406E-3,.19324E-3,0
2024-092B,2024-092B,2026-01-26T13:58:52.223232,15.25446544,.0009062,97.6298,152.3351,323.5438,36.5182,0,U,59774,999,9392,.64752347E-3,.16339E-3,0
2024-092C,2024-092C,2026-01-26T14:59:32.822016,15.26070854,.00091763,97.6436,153.8101,326.0270,34.0379,0,U,59775,999,9396,.65769588E-3,.16913E-3,0
2024-092D,2024-092D,2026-01-26T07:09:46.891296,15.31003974,.0007583,97.6380,154.3066,295.3299,64.7156,0,U,59776,999,9399,.90857E-3,.27226E-3,0
2024-092E,2024-092E,2026-01-25T18:46:53.222880,15.30899199,.00078202,97.6382,153.7502,297.2730,62.7713,0,U,59777,999,9391,.92115581E-3,.27517E-3,0
2024-092F,2024-092F,2026-01-26T08:12:03.054528,15.31476719,.00078846,97.6375,154.5136,295.4852,64.5573,0,U,59778,999,9401,.90415128E-3,.27496E-3,0
2024-092G,2024-092G,2026-01-26T15:29:15.857952,14.31774122,.00108784,98.6534,145.9877,263.6261,96.3683,0,U,59779,999,8864,.16408603E-3,.394E-5,0
2024-092H,2024-092H,2026-01-26T13:48:30.658176,14.31773039,.00112444,98.6526,145.9120,265.3621,94.6278,0,U,59780,999,8863,.17003022E-3,.41E-5,0
2024-092J,2024-092J,2026-01-26T13:46:34.209120,14.31774169,.00111372,98.6526,145.9154,265.6146,94.3764,0,U,59781,999,8863,.16714212E-3,.402E-5,0
STARLINK-31363,2024-093A,2026-01-26T12:38:08.291040,15.27580172,.00008267,43.0001,83.8119,280.4649,79.6110,0,U,59782,999,9628,.15077667E-3,.3889E-4,0
STARLINK-31868,2024-093B,2026-01-26T12:39:59.207904,15.27600776,.00004843,43.0032,83.7816,293.0704,67.0097,0,U,59783,999,9628,-.12660513E-3,-.3746E-4,0
STARLINK-31848,2024-093C,2026-01-26T12:03:00.530208,15.27578586,.00007676,43.0003,83.6661,282.6963,77.3802,0,U,59784,999,9628,.80041661E-4,.1941E-4,0
STARLINK-31890,2024-093D,2026-01-26T12:08:31.314336,15.27617291,.00015271,43.0024,83.6962,267.8886,92.1791,0,U,59785,999,9628,.19586586E-4,.277E-5,0
STARLINK-31862,2024-093E,2026-01-26T13:03:09.719136,15.27586256,.00007248,43.0027,86.5801,358.6709,1.4141,0,U,59786,999,9625,.92769216E-4,.2292E-4,0
STARLINK-31870,2024-093F,2026-01-26T12:57:36.824256,15.27575788,.0000385,43.0021,86.5543,14.2333,345.8530,0,U,59787,999,9625,.23934447E-4,.397E-5,0
STARLINK-31888,2024-093G,2026-01-26T11:38:14.580672,15.27577411,.00009155,43.0047,86.9964,256.5356,103.5394,0,U,59788,999,9624,.56737934E-4,.1299E-4,0
STARLINK-31863,2024-093H,2026-01-26T11:34:32.586240,15.27578195,.00011181,43.0043,86.9786,295.0483,65.0252,0,U,59789,999,9624,.14778153E-3,.3806E-4,0
STARLINK-31873,2024-093J,2026-01-26T11:49:20.268480,15.27615136,.00022276,43.0049,87.0528,241.5649,118.4978,0,U,59790,999,9624,-.21173048E-3,-.6091E-4,0
STARLINK-31865,2024-093K,2026-01-26T13:29:03.155712,15.27590353,.0001428,43.0046,86.7181,268.3551,91.7137,0,U,59791,999,9625,.72720188E-4,.174E-4,0
STARLINK-31823,2024-093N,2026-01-26T13:34:35.560704,15.27595136,.00029789,43.0036,86.7377,240.0608,119.9948,0,U,59794,999,9625,-.75493012E-4,-.2341E-4,0
STARLINK-31916,2024-093P,2026-01-26T12:06:00.724320,15.27578627,.0000698,42.9989,87.1390,311.8621,48.2171,0,U,59795,999,9624,.56688844E-4,.1298E-4,0
STARLINK-31907,2024-093R,2026-01-26T12:09:43.812576,15.27561467,.00006061,42.9991,87.1580,270.8062,89.2720,0,U,59797,999,9624,.61161355E-3,.16597E-3,0
STARLINK-31687,2024-093S,2026-01-26T12:46:42.676896,15.27602199,.00004938,43.0016,87.3527,277.2513,82.8282,0,U,59798,999,9624,-.47336608E-4,-.1565E-4,0
STARLINK-31810,2024-093T,2026-01-26T14:00:32.285664,15.27487543,.00014306,43.0008,86.8709,228.3927,131.6802,0,U,59799,999,9625,.92430734E-3,.25188E-3,0
STARLINK-31812,2024-093U,2026-01-26T12:15:15.832224,15.27562476,.00006897,42.9992,87.1861,279.7675,80.3099,0,U,59800,999,9631,.28784304E-3,.7663E-4,0
STARLINK-31815,2024-093V,2026-01-26T13:54:58.232160,15.27599816,.00007412,42.9975,86.8438,287.7312,72.3459,0,U,59801,999,9625,.4289592E-3,.11568E-3,0
STARLINK-31814,2024-093W,2026-01-26T12:52:15.081888,15.27576089,.0001125,43.0012,87.3682,262.7775,97.2949,0,U,59802,999,9624,.78633466E-4,.1902E-4,0
STARLINK-31794,2024-093X,2026-01-26T12:37:28.216992,15.27581019,.00009615,42.9908,87.3017,75.2858,284.8100,0,U,59803,999,9631,.19344246E-3,.5065E-4,0
STARLINK-31824,2024-093Y,2026-01-25T14:33:43.612128,15.27567041,.0001232,42.9981,92.4403,263.2800,96.7912,0,U,59804,999,9610,-.82756E-4,-.2538E-4,0
2024-094A,2024-094A,2026-01-26T15:43:53.979168,15.16697430,.00067378,97.4037,100.9715,334.4054,25.6845,0,U,59805,999,9371,.5637883E-3,.10993E-3,0
2024-094B,2024-094B,2026-01-26T14:58:32.741184,15.16805247,.00089981,97.4055,101.1194,214.2369,145.8286,0,U,59806,999,9370,.62087439E-3,.12157E-3,0
2024-094C,2024-094C,2026-01-26T15:21:51.751584,15.16808907,.00075039,97.4084,101.2549,336.0475,24.0408,0,U,59807,999,9370,.56402597E-3,.11034E-3,0
2024-094D,2024-094D,2026-01-26T14:30:49.214592,15.16829615,.00063222,97.4012,100.7525,340.7938,19.3057,0,U,59808,999,9369,.60145699E-3,.11777E-3,0
2024-092K,2024-092K,2026-01-26T14:31:57.749664,15.30815242,.00079133,97.6371,154.4599,294.9298,65.1119,0,U,59809,999,9353,.84251683E-3,.25088E-3,0
2024-095A,2024-095A,2026-01-26T15:34:28.375392,15.11506020,.00013201,97.5461,107.5602,251.2382,108.8705,0,U,59810,999,9276,.48693965E-3,.8186E-4,0
2024-095C,2024-095C,2026-01-26T14:42:55.956960,15.54978616,.00049104,97.5515,123.5038,261.9948,98.0748,0,U,59812,999,9401,.15914842E-2,.107837E-2,0
2024-095D,2024-095D,2026-01-26T14:26:15.946944,15.69706094,.00046059,97.5413,126.8848,271.4884,88.5850,0,U,59813,999,9424,.17091357E-2,.207296E-2,0
STARLINK-31947,2024-097A,2026-01-25T16:38:28.930560,15.27593098,.00012832,43.0038,156.9630,271.8817,88.1888,0,U,59835,999,9534,-.72512275E-4,-.2258E-4,0
STARLINK-31929,2024-097B,2026-01-26T15:34:02.095104,15.27577297,.00010946,43.0005,152.0920,279.0391,81.0337,0,U,59836,999,9548,-.27462558E-4,-.1018E-4,0
STARLINK-31927,2024-097C,2026-01-26T00:55:11.270496,15.27560549,.00002407,42.9997,155.2485,305.8389,54.2440,0,U,59837,999,9539,.20615901E-3,.5412E-4,0
